P/2011 V1 (Boattini),e,7.3749,46.7971,269.3553,3.856602,0.1301358,0.55032888,171.0798,05/09.0/2022,2000,g 15.5,4.0
# From MPC 82718
P/2011 W1 (PANSTARRS),e,3.7186,161.7854,282.7565,4.664083,0.0978486,0.28774593,8.8313,05/09.0/2022,2000,g 11.5,4.0
# From MPC 79342
P/2011 Y2 (Boattini),e,6.3747,309.3459,131.9245,6.238933,0.0632468,0.70995628,235.1619,05/09.0/2022,2000,g 15.0,4.0
# From MPC 94669
P/2012 B1 (PANSTARRS),e,7.6105,36.2161,162.4510,6.531142,0.0590501,0.40897659,190.2426,05/09.0/2022,2000,g  9.0,4.0
# From MPC 78590
P/2012 C3 (PANSTARRS),e,9.0920,135.3677,344.9542,9.748681,0.0323806,0.63011148,359.9758,10/06.0/2011,2000,g 13.0,4.0
# From MPC 84931
P/2012 F2 (PANSTARRS),e,14.7058,227.0020,33.3222,6.333639,0.0618335,0.54152668,205.0025,05/09.0/2022,2000,g 12.0,4.0
# From MPEC 2022-ED3
P/2012 G1 (PANSTARRS),e,12.1747,283.2795,266.0858,4.164698,0.1159655,0.32964883,67.9259,05/09.0/2022,2000,g 15.0,4.0
# From MPC 80898
P/2012 K3 (Gibbs),e,13.1926,125.8150,172.2311,3.627335,0.1426667,0.42294639,142.0480,05/09.0/2022,2000,g 15.0,4.0
# From MPC 88326
P/2012 NJ (La Sagra),e,84.6291,315.5633,338.3737,8.464462,0.0400226,0.84692181,144.6954,05/09.0/2022,2000,g 14.5,4.0
# From MPC 81470
P/2012 O1 (McNaught),e,7.4287,91.9533,238.2911,3.541308,0.1478967,0.59448904,172.0294,05/09.0/2022,2000,g 17.5,4.0
# From MPC 80899
P/2012 O2 (McNaught),e,24.4782,120.6841,183.4656,3.625339,0.1427845,0.53236388,156.9120,05/09.0/2022,2000,g 17.0,4.0
# From MPC 82720
P/2012 O3 (McNaught),e,16.6159,336.4140,344.7531,4.573442,0.1007719,0.64710485,357.9070,05/09.0/2022,2000,g 16.5,4.0
# From MPEC 2022-H30
C/2012 S1 (ISON),h,12/01.5689/2013,63.8986,295.1070,345.9299,1.000233,0.013274,2000,9.5,4.0
# From MPC 82320
P/2012 T2 (PANSTARRS),e,12.5638,73.7160,310.5969,5.731172,0.0718355,0.16198090,237.0405,05/09.0/2022,2000,g 10.0,4.0
# From MPC 80900
P/2012 T3 (PANSTARRS),e,9.5627,114.3884,195.5163,6.151077,0.0646067,0.61703218,236.1769,05/09.0/2022,2000,g 15.0,4.0
# From MPC 82720
P/2012 U2 (PANSTARRS),e,10.7585,185.3186,228.2421,7.134953,0.0517151,0.49935199,179.1752,05/09.0/2022,2000,g 12.5,4.0
# From MPC 84024
P/2012 US27 (Siding Spring),e,39.3609,49.1954,0.8076,5.165895,0.0839432,0.64803712,284.7525,05/09.0/2022,2000,g 13.5,4.0
# From MPC 82721
P/2012 WA34 (Lemmon-PANSTARRS),e,6.0784,93.6330,356.2548,4.693618,0.0969265,0.34508570,318.8735,05/09.0/2022,2000,g 13.5,4.0
# From MPC 82721
P/2013 AL76 (Catalina),e,144.8572,145.9965,27.0556,6.497708,0.0595064,0.68628055,204.8657,05/09.0/2022,2000,g 16.0,4.0
# From MPC 91612
P/2013 G1 (Kowalski),e,5.4604,221.3399,51.5182,6.894273,0.0544467,0.51190685,167.1851,05/09.0/2022,2000,g 11.0,4.0
# From MPC 84025
P/2013 G4 (PANSTARRS),e,5.9163,339.6382,214.6485,4.440043,0.1053473,0.40939750,355.6409,05/09.0/2022,2000,g 15.0,4.0
# From MPC 91613
P/2013 J2 (McNaught),e,15.5204,289.3820,37.8203,6.222771,0.0634934,0.65759206,201.4907,05/09.0/2022,2000,g 13.0,4.0
# From MPC 86229
P/2013 N3 (PANSTARRS),e,2.1740,17.4632,323.9469,7.393206,0.0490292,0.59327708,147.1964,05/09.0/2022,2000,g 13.0,4.0
# From MPC 85834
P/2013 N5 (PANSTARRS),e,23.4568,187.1557,176.9223,6.797410,0.0556146,0.73246385,179.5806,05/09.0/2022,2000,g 17.0,4.0
# From MPC 85834
P/2013 P1 (PANSTARRS),e,18.7254,160.5890,138.2274,8.577878,0.0392314,0.60523540,131.6426,05/09.0/2022,2000,g 12.0,4.0
# From MPC 94671
P/2013 R3 (Catalina-PANSTARRS),e,0.8650,341.9902,11.2368,3.032838,0.1866080,0.27550316,232.9033,05/09.0/2022,2000,g 14.0,4.0
# From unp
P/2013 R3-A (Catalina-PANSTARRS),e,0.8644,341.9571,11.2758,3.032695,0.1866212,0.27547278,232.9425,05/09.0/2022,2000,g  9.0,4.0
# From MPEC 2015-M77
P/2013 R3-B (Catalina-PANSTARRS),e,0.8656,342.0130,11.2106,3.032915,0.1866009,0.27551810,232.8823,05/09.0/2022,2000,g  9.0,4.0
# From MPC 85835
P/2013 T1 (PANSTARRS),e,24.3006,10.0803,346.1388,5.858199,0.0695117,0.62424008,222.3125,05/09.0/2022,2000,g 16.5,4.0
# From MPC 86643
P/2013 T2 (Schwartz),e,9.4577,0.8002,345.5570,3.491230,0.1510902,0.50121380,134.4941,05/09.0/2022,2000,g 16.0,4.0
# From MPC 91613
P/2013 W1 (PANSTARRS),e,4.6957,117.8442,1.2506,3.488449,0.1512710,0.59273032,91.6378,05/09.0/2022,2000,g 17.5,4.0
# From MPC101095
P/2013 YG46 (Spacewatch),e,7.8571,48.8370,242.5812,3.274771,0.1663154,0.45476244,319.7108,05/09.0/2022,2000,g 10.0,4.0
# From MPC 89728
P/2014 A2 (Hill),e,24.5377,106.6300,356.1600,5.927545,0.0682955,0.64539449,213.9361,05/09.0/2022,2000,g 15.0,4.0
# From MPC 92981
P/2014 A3 (PANSTARRS),e,13.7110,229.9806,213.9677,4.612385,0.0994983,0.24705846,325.4361,05/09.0/2022,2000,g 12.0,4.0
# From MPEC 2022-HC2
C/2014 B1 (Schwartz),e,28.4117,161.4229,345.6548,4147,0.0000037,0.99769832,0.0000,09/06.5264/2017,2000,g  4.0,4.0
# From MPC102095
P/2014 C1 (TOTAS),e,2.6922,167.7985,23.8896,3.034955,0.1864128,0.44994738,208.8468,05/09.0/2022,2000,g 15.5,4.0
# From MPC 94280
C/2014 F3 (Sheppard-Trujillo),e,6.5681,326.6228,4.0033,14.88225,0.0171673,0.61743459,6.0427,05/09.0/2022,2000,g  6.0,4.0
# From MPC 98560
P/2014 L2 (NEOWISE),e,5.1998,149.3473,182.6960,6.304384,0.0622644,0.64817997,177.3693,05/09.0/2022,2000,g 12.0,4.0
# From MPC 90769
P/2014 L3 (Hill),e,6.2725,115.4834,178.6922,8.175024,0.0421668,0.77321199,120.9623,05/09.0/2022,2000,g 16.0,4.0
# From MPC 91614
P/2014 M4 (PANSTARRS),e,3.3401,263.2131,147.9939,5.870402,0.0692951,0.59511107,186.3827,05/09.0/2022,2000,g 15.0,4.0
# From MPC103844
P/2014 MG4 (Spacewatch-PANSTARRS),e,9.3691,311.7336,299.0751,5.012726,0.0878199,0.25913428,285.1346,05/09.0/2022,2000,g  9.5,4.0
# From MPC 98560
P/2014 O3 (PANSTARRS),e,7.8001,87.6439,204.7401,7.572247,0.0473006,0.38516857,139.1116,05/09.0/2022,2000,g 10.5,4.0
# From MPEC 2022-C56
C/2014 OG392 (PANSTARRS),e,9.0328,145.7950,254.1777,12.24406,0.0230047,0.18576240,3.6342,05/09.0/2022,2000,g  6.0,4.0
# From MPC 91615
P/2014 R5 (Lemmon-PANSTARRS),e,1.0883,126.5598,213.7245,4.058640,0.1205406,0.41410411,347.7159,05/09.0/2022,2000,g 15.0,4.0
# From MPC 91616
P/2014 U4 (PANSTARRS),e,6.4291,11.8853,347.7930,3.507559,0.1500364,0.46493787,67.4268,05/09.0/2022,2000,g 18.0,4.0
# From MPC 95211
P/2014 V1 (PANSTARRS),e,22.5276,166.2004,177.6254,5.479887,0.0768328,0.53451631,204.3579,05/09.0/2022,2000,g 14.0,4.0
# From MPC 93586
P/2014 W1 (PANSTARRS),e,8.8369,246.2406,152.1636,4.464508,0.1044825,0.38908181,298.4106,05/09.0/2022,2000,g 15.5,4.0
# From MPC105542
P/2014 W4 (PANSTARRS),e,15.2808,33.3784,67.6572,6.591936,0.0582351,0.35274088,135.2390,05/09.0/2022,2000,g 11.0,4.0
# From MPC 94281
P/2014 X1 (Elenin),e,26.0326,61.5416,33.8960,6.206562,0.0637422,0.70910915,171.1915,05/09.0/2022,2000,g 15.0,4.0
# From MPC 92275
P/2015 A3 (PANSTARRS),e,172.5365,277.2612,249.3749,7.812645,0.0451343,0.85061189,119.0649,05/09.0/2022,2000,g 20.0,4.0
# From MPC 99270
P/2015 B1 (PANSTARRS),e,18.0451,352.9484,188.9043,9.494618,0.0336890,0.36692506,81.9127,05/09.0/2022,2000,g  8.5,4.0
# From MPC109141
P/2015 B4 (Lemmon-PANSTARRS),e,1.7617,266.0409,227.3380,8.521982,0.0396181,0.56019708,105.0933,05/09.0/2022,2000,g 11.0,4.0
# From MPC101096
P/2015 C1 (TOTAS-Gibbs),e,13.9075,348.8000,178.1760,6.578009,0.0584201,0.56050518,150.2661,05/09.0/2022,2000,g 12.5,4.0
# From MPC109141
P/2015 D5 (Kowalski),e,20.5213,74.0652,39.7298,8.959136,0.0367540,0.48936452,108.8259,05/09.0/2022,2000,g  9.0,4.0
# From MPC 96866
P/2015 D6 (Lemmon-PANSTARRS),e,20.2028,45.9063,125.0757,7.139073,0.0516703,0.36128030,129.5285,05/09.0/2022,2000,g 10.5,4.0
# From MPEC 2021-P47
C/2015 ER61 (PANSTARRS),e,6.3206,235.0366,68.5247,537.5240,0.0000791,0.99804989,0.0000,05/10.3462/2017,2000,g 11.0,2.0
# From MPEC 2018-BF5
C/2015 E61-B (PANSTARRS),e,6.3221,235.0717,68.6142,1807,0.0000128,0.99941905,0.0000,05/10.3245/2017,2000,g 13.5,2.0
# From MPEC 2021-P47
P/2015 HG16 (PANSTARRS),e,18.7911,57.9027,47.7219,4.761296,0.0948672,0.35237942,274.9228,05/09.0/2022,2000,g 12.5,4.0
# From MPC 95213
P/2015 K5 (PANSTARRS),e,39.9447,134.1905,106.3513,6.724897,0.0565165,0.55237899,143.1209,05/09.0/2022,2000,g 13.5,4.0
# From MPC107684
P/2015 M2 (PANSTARRS),e,3.9707,86.5860,225.8376,7.238436,0.0506101,0.18039857,122.9759,05/09.0/2022,2000,g  8.5,4.0
# From MPEC 2021-P47
C/2015 O1 (PANSTARRS),h,02/20.0994/2018,127.2014,299.8418,89.5837,1.001531,3.724388,2000,6.5,4.0
# From MPC 99819
P/2015 P4 (PANSTARRS),e,8.7173,104.7153,280.6145,6.047255,0.0662776,0.58547922,152.3574,05/09.0/2022,2000,g 14.0,4.0
# From MPC102952
P/2015 PD229 (Cameron-ISON),e,2.0259,342.6419,352.6092,7.188795,0.0511352,0.32796207,125.6091,05/09.0/2022,2000,g 11.5,2.0
# From MPC 96867
P/2015 Q2 (Pimentel),e,146.5336,228.4965,244.5996,7.352403,0.0494379,0.75054290,120.4651,05/09.0/2022,2000,g 15.5,4.0
# From MPC 98562
P/2015 R1 (PANSTARRS),e,22.6916,48.3555,300.5315,5.880168,0.0691225,0.63439449,173.1401,05/09.0/2022,2000,g 14.0,4.0
# From MPC 95734
P/2015 R2 (PANSTARRS),e,15.4854,168.5971,149.8275,4.486491,0.1037156,0.45290015,261.3477,05/09.0/2022,2000,g 14.5,4.0
# From MPC117068
C/2015 T2 (PANSTARRS),e,124.5661,50.9814,30.6735,1751,0.0000134,0.99603717,0.0000,05/18.2286/2017,2000,g  8.0,4.0
# From MPC 96280
P/2015 T3 (PANSTARRS),e,13.0937,120.5019,178.6330,4.326181,0.1095335,0.50818108,359.9227,12/21.0/2014,2000,g 14.0,4.0
# From MPC102953
P/2015 TO19 (Lemmon-PANSTARRS),e,6.4999,321.6416,89.1326,4.553472,0.1014355,0.35895709,228.6925,05/09.0/2022,2000,g 14.0,4.0
# From MPC110080
P/2015 TP200 (LINEAR),e,8.7805,7.0188,82.4761,7.267536,0.0503064,0.53568684,101.5811,05/09.0/2022,2000,g 11.0,4.0
# From MPC115881
C/2015 V1 (PANSTARRS),e,139.2288,197.1490,179.6577,2109,0.0000102,0.99797260,0.0000,12/16.4411/2017,2000,g  6.5,4.0
# From MPC112390
C/2015 V2 (Johnson),h,06/11.0693/2017,49.8054,69.9961,164.9760,1.001712,1.648053,2000,5.0,4.0
# From MPC115881
C/2015 VL62 (Lemmon-Yeung-PANSTARRS),h,08/28.0489/2017,165.8226,95.1799,128.9675,1.001734,2.724075,2000,8.0,4.0
# From MPC101098
P/2015 W2 (Catalina),e,11.6081,294.1967,117.5060,7.291709,0.0500565,0.63484169,120.6472,05/09.0/2022,2000,g 13.0,4.0
# From MPEC 2021-N06
